{
  "type": "FeatureCollection",
  "features": [
    {
      "type": "Feature",
      "properties": {
        "norad_id": 44334,
        "name": "EUTELSAT 7C",
        "group": "eutelsat",
        "lat": -0.049272534843221034,
        "lon": 135.8761415343564,
        "alt_km": 35789.99759139307,
        "timestamp": "2025-12-06T03:35:01.470700+00:00",
        "meta_object_name": "EUTELSAT 7C",
        "meta_object_id": "2019-034B",
        "meta_epoch": "2025-12-05T03:27:25.181280",
        "meta_mean_motion": 1.00269222,
        "meta_eccentricity": 0.00034467,
        "meta_inclination": 0.0759,
        "meta_ra_of_asc_node": 181.5889,
        "meta_arg_of_pericenter": 57.0466,
        "meta_mean_anomaly": 254.4093,
        "meta_ephemeris_type": 0,
        "meta_classification_type": "U",
        "meta_norad_cat_id": 44334,
        "meta_element_set_no": 999,
        "meta_rev_at_epoch": 489,
        "meta_bstar": 0,
        "meta_mean_motion_dot": 6e-07,
        "meta_mean_motion_ddot": 0,
        "tle_line1": "1 44334U 19034B   25339.14404145  .00000060  00000+0  00000+0 0  9994",
        "tle_line2": "2 44334   0.0759 181.5889 0003446  57.0466 254.4093  1.00269222  4898"
      },
      "geometry": {
        "type": "Point",
        "coordinates": [
          135.8761415343564,
          -0.049272534843221034
        ]
      }
    },
    {
      "type": "Feature",
      "properties": {
        "norad_id": 44624,
        "name": "EUTELSAT 5 WEST B",
        "group": "eutelsat",
        "lat": 0.044101680434604225,
        "lon": 123.9082374404194,
        "alt_km": 35796.47495548119,
        "timestamp": "2025-12-06T03:35:01.470713+00:00",
        "meta_object_name": "EUTELSAT 5 WEST B",
        "meta_object_id": "2019-067A",
        "meta_epoch": "2025-12-05T03:24:03.004416",
        "meta_mean_motion": 1.00270143,
        "meta_eccentricity": 0.00035898,
        "meta_inclination": 0.0687,
        "meta_ra_of_asc_node": 331.84,
        "meta_arg_of_pericenter": 282.9691,
        "meta_mean_anomaly": 225.4129,
        "meta_ephemeris_type": 0,
        "meta_classification_type": "U",
        "meta_norad_cat_id": 44624,
        "meta_element_set_no": 999,
        "meta_rev_at_epoch": 2249,
        "meta_bstar": 0,
        "meta_mean_motion_dot": -3e-07,
        "meta_mean_motion_ddot": 0,
        "tle_line1": "1 44624U 19067A   25339.14170144 -.00000030  00000+0  00000+0 0  9999",
        "tle_line2": "2 44624   0.0687 331.8400 0003589 282.9691 225.4129  1.00270143 22494"
      },
      "geometry": {
        "type": "Point",
        "coordinates": [
          123.9082374404194,
          0.044101680434604225
        ]
      }
    },
    {
      "type": "Feature",
      "properties": {
        "norad_id": 45027,
        "name": "EUTELSAT KONNECT",
        "group": "eutelsat",
        "lat": 0.05079054142958339,
        "lon": 136.12560749907303,
        "alt_km": 35790.11073907997,
        "timestamp": "2025-12-06T03:35:01.470738+00:00",
        "meta_object_name": "EUTELSAT KONNECT",
        "meta_object_id": "2020-005B",
        "meta_epoch": "2025-12-04T08:37:30.489888",
        "meta_mean_motion": 1.00272344,
        "meta_eccentricity": 0.0001642,
        "meta_inclination": 0.0692,
        "meta_ra_of_asc_node": 100.602,
        "meta_arg_of_pericenter": 164.0721,
        "meta_mean_anomaly": 305.3307,
        "meta_ephemeris_type": 0,
        "meta_classification_type": "U",
        "meta_norad_cat_id": 45027,
        "meta_element_set_no": 999,
        "meta_rev_at_epoch": 2237,
        "meta_bstar": 0,
        "meta_mean_motion_dot": 6.5e-07,
        "meta_mean_motion_ddot": 0,
        "tle_line1": "1 45027U 20005B   25338.35938067  .00000065  00000+0  00000+0 0  9996",
        "tle_line2": "2 45027   0.0692 100.6020 0001642 164.0721 305.3307  1.00272344 22378"
      },
      "geometry": {
        "type": "Point",
        "coordinates": [
          136.12560749907303,
          0.05079054142958339
        ]
      }
    },
    {
      "type": "Feature",
      "properties": {
        "norad_id": 49056,
        "name": "EUTELSAT QUANTUM",
        "group": "eutelsat",
        "lat": 0.006758348571035479,
        "lon": 176.5949541747237,
        "alt_km": 35786.48331842612,
        "timestamp": "2025-12-06T03:35:01.470761+00:00",
        "meta_object_name": "EUTELSAT QUANTUM",
        "meta_object_id": "2021-069B",
        "meta_epoch": "2025-12-05T02:45:38.523744",
        "meta_mean_motion": 1.0026976,
        "meta_eccentricity": 0.0003686,
        "meta_inclination": 0.0221,
        "meta_ra_of_asc_node": 30.9288,
        "meta_arg_of_pericenter": 235.6276,
        "meta_mean_anomaly": 256.7359,
        "meta_ephemeris_type": 0,
        "meta_classification_type": "U",
        "meta_norad_cat_id": 49056,
        "meta_element_set_no": 999,
        "meta_rev_at_epoch": 1598,
        "meta_bstar": 0,
        "meta_mean_motion_dot": 1.38e-06,
        "meta_mean_motion_ddot": 0,
        "tle_line1": "1 49056U 21069B   25339.11502921  .00000138  00000+0  00000+0 0  9995",
        "tle_line2": "2 49056   0.0221  30.9288 0003686 235.6276 256.7359  1.00269760 15986"
      },
      "geometry": {
        "type": "Point",
        "coordinates": [
          176.5949541747237,
          0.006758348571035479
        ]
      }
    },
    {
      "type": "Feature",
      "properties": {
        "norad_id": 53765,
        "name": "EUTELSAT KONNECT VHTS",
        "group": "eutelsat",
        "lat": 0.03905479703254936,
        "lon": 131.59234695128387,
        "alt_km": 35789.13561567583,
        "timestamp": "2025-12-06T03:35:01.470774+00:00",
        "meta_object_name": "EUTELSAT KONNECT VHTS",
        "meta_object_id": "2022-110A",
        "meta_epoch": "2025-12-05T00:00:43.723584",
        "meta_mean_motion": 1.00269392,
        "meta_eccentricity": 0.00027793,
        "meta_inclination": 0.0617,
        "meta_ra_of_asc_node": 107.5885,
        "meta_arg_of_pericenter": 125.8234,
        "meta_mean_anomaly": 203.528,
        "meta_ephemeris_type": 0,
        "meta_classification_type": "U",
        "meta_norad_cat_id": 53765,
        "meta_element_set_no": 999,
        "meta_rev_at_epoch": 487,
        "meta_bstar": 0,
        "meta_mean_motion_dot": 3e-07,
        "meta_mean_motion_ddot": 0,
        "tle_line1": "1 53765U 22110A   25339.00050606  .00000030  00000+0  00000+0 0  9992",
        "tle_line2": "2 53765   0.0617 107.5885 0002779 125.8234 203.5280  1.00269392  4877"
      },
      "geometry": {
        "type": "Point",
        "coordinates": [
          131.59234695128387,
          0.03905479703254936
        ]
      }
    },
    {
      "type": "Feature",
      "properties": {
        "norad_id": 54048,
        "name": "EUTELSAT HOTBIRD 13F",
        "group": "eutelsat",
        "lat": -0.02118536330895892,
        "lon": 141.94951239562997,
        "alt_km": 35794.06268827457,
        "timestamp": "2025-12-06T03:35:01.470787+00:00",
        "meta_object_name": "EUTELSAT HOTBIRD 13F",
        "meta_object_id": "2022-134A",
        "meta_epoch": "2025-12-05T03:29:10.013856",
        "meta_mean_motion": 1.00270989,
        "meta_eccentricity": 0.00021852,
        "meta_inclination": 0.0493,
        "meta_ra_of_asc_node": 292.9027,
        "meta_arg_of_pericenter": 59.9917,
        "meta_mean_anomaly": 146.6039,
        "meta_ephemeris_type": 0,
        "meta_classification_type": "U",
        "meta_norad_cat_id": 54048,
        "meta_element_set_no": 999,
        "meta_rev_at_epoch": 1143,
        "meta_bstar": 0,
        "meta_mean_motion_dot": 9.9e-07,
        "meta_mean_motion_ddot": 0,
        "tle_line1": "1 54048U 22134A   25339.14525479  .00000099  00000+0  00000+0 0  9998",
        "tle_line2": "2 54048   0.0493 292.9027 0002185  59.9917 146.6039  1.00270989 11430"
      },
      "geometry": {
        "type": "Point",
        "coordinates": [
          141.94951239562997,
          -0.02118536330895892
        ]
      }
    },
    {
      "type": "Feature",
      "properties": {
        "norad_id": 54225,
        "name": "EUTELSAT HOTBIRD 13G",
        "group": "eutelsat",
        "lat": -0.03295297052572225,
        "lon": 141.9111021053037,
        "alt_km": 35780.803801419526,
        "timestamp": "2025-12-06T03:35:01.470799+00:00",
        "meta_object_name": "EUTELSAT HOTBIRD 13G",
        "meta_object_id": "2022-146A",
        "meta_epoch": "2025-12-05T03:29:10.013856",
        "meta_mean_motion": 1.00270059,
        "meta_eccentricity": 0.00019392,
        "meta_inclination": 0.0468,
        "meta_ra_of_asc_node": 236.4892,
        "meta_arg_of_pericenter": 311.0652,
        "meta_mean_anomaly": 311.9375,
        "meta_ephemeris_type": 0,
        "meta_classification_type": "U",
        "meta_norad_cat_id": 54225,
        "meta_element_set_no": 999,
        "meta_rev_at_epoch": 552,
        "meta_bstar": 0,
        "meta_mean_motion_dot": 9.9e-07,
        "meta_mean_motion_ddot": 0,
        "tle_line1": "1 54225U 22146A   25339.14525479  .00000099  00000+0  00000+0 0  9998",
        "tle_line2": "2 54225   0.0468 236.4892 0001939 311.0652 311.9375  1.00270059  5527"
      },
      "geometry": {
        "type": "Point",
        "coordinates": [
          141.9111021053037,
          -0.03295297052572225
        ]
      }
    }
  ]
}